{
  "type": "FeatureCollection",
  "features": [
    {
      "type": "Feature",
      "properties": {
        "norad_id": 58647,
        "name": "TIANMU-1 13",
        "group": "weather",
        "lat": -43.59763658176116,
        "lon": 25.106462759918934,
        "alt_km": 499.35485395375963,
        "timestamp": "2025-12-24T14:43:28.639025+00:00",
        "meta_object_name": "TIANMU-1 13",
        "meta_object_id": "2023-205C",
        "meta_epoch": "2025-12-24T07:02:31.159680",
        "meta_mean_motion": 15.24663836,
        "meta_eccentricity": 0.00065839,
        "meta_inclination": 97.3611,
        "meta_ra_of_asc_node": 17.7209,
        "meta_arg_of_pericenter": 216.4798,
        "meta_mean_anomaly": 143.5992,
        "meta_ephemeris_type": 0,
        "meta_classification_type": "U",
        "meta_norad_cat_id": 58647,
        "meta_element_set_no": 999,
        "meta_rev_at_epoch": 11083,
        "meta_bstar": 0.00027531842,
        "meta_mean_motion_dot": 6.735e-05,
        "meta_mean_motion_ddot": 0,
        "tle_line1": "1 58647U 23205C   25358.29341620  .00006735  00000+0  27532-3 0  9994",
        "tle_line2": "2 58647  97.3611  17.7209 0006583 216.4798 143.5992 15.24663836110834"
      },
      "geometry": {
        "type": "Point",
        "coordinates": [
          25.106462759918934,
          -43.59763658176116
        ]
      }
    },
    {
      "type": "Feature",
      "properties": {
        "norad_id": 58648,
        "name": "TIANMU-1 14",
        "group": "weather",
        "lat": 45.71564633353575,
        "lon": 9.763610453839588,
        "alt_km": 492.92569485451986,
        "timestamp": "2025-12-24T14:43:28.639041+00:00",
        "meta_object_name": "TIANMU-1 14",
        "meta_object_id": "2023-205D",
        "meta_epoch": "2025-12-24T08:13:18.466176",
        "meta_mean_motion": 15.24647467,
        "meta_eccentricity": 0.00072866,
        "meta_inclination": 97.3544,
        "meta_ra_of_asc_node": 17.1074,
        "meta_arg_of_pericenter": 222.5778,
        "meta_mean_anomaly": 137.4896,
        "meta_ephemeris_type": 0,
        "meta_classification_type": "U",
        "meta_norad_cat_id": 58648,
        "meta_element_set_no": 999,
        "meta_rev_at_epoch": 11084,
        "meta_bstar": 0.00028544226,
        "meta_mean_motion_dot": 6.983e-05,
        "meta_mean_motion_ddot": 0,
        "tle_line1": "1 58648U 23205D   25358.34257484  .00006983  00000+0  28544-3 0  9994",
        "tle_line2": "2 58648  97.3544  17.1074 0007286 222.5778 137.4896 15.24647467110849"
      },
      "geometry": {
        "type": "Point",
        "coordinates": [
          9.763610453839588,
          45.71564633353575
        ]
      }
    },
    {
      "type": "Feature",
      "properties": {
        "norad_id": 58660,
        "name": "TIANMU-1 19",
        "group": "weather",
        "lat": 81.18579366928367,
        "lon": 52.20769022553047,
        "alt_km": 475.67753659689697,
        "timestamp": "2025-12-24T14:43:28.639056+00:00",
        "meta_object_name": "TIANMU-1 19",
        "meta_object_id": "2023-208A",
        "meta_epoch": "2025-12-24T06:29:39.884064",
        "meta_mean_motion": 15.28053956,
        "meta_eccentricity": 0.00047362,
        "meta_inclination": 97.4391,
        "meta_ra_of_asc_node": 109.2864,
        "meta_arg_of_pericenter": 203.8256,
        "meta_mean_anomaly": 156.2765,
        "meta_ephemeris_type": 0,
        "meta_classification_type": "U",
        "meta_norad_cat_id": 58660,
        "meta_element_set_no": 999,
        "meta_rev_at_epoch": 11058,
        "meta_bstar": 0.00039618442,
        "meta_mean_motion_dot": 0.00010773,
        "meta_mean_motion_ddot": 0,
        "tle_line1": "1 58660U 23208A   25358.27060051  .00010773  00000+0  39618-3 0  9991",
        "tle_line2": "2 58660  97.4391 109.2864 0004736 203.8256 156.2765 15.28053956110587"
      },
      "geometry": {
        "type": "Point",
        "coordinates": [
          52.20769022553047,
          81.18579366928367
        ]
      }
    },
    {
      "type": "Feature",
      "properties": {
        "norad_id": 58661,
        "name": "TIANMU-1 20",
        "group": "weather",
        "lat": -30.1838822926701,
        "lon": -74.26697069752925,
        "alt_km": 479.4847343255424,
        "timestamp": "2025-12-24T14:43:28.639072+00:00",
        "meta_object_name": "TIANMU-1 20",
        "meta_object_id": "2023-208B",
        "meta_epoch": "2025-12-24T05:57:18.888192",
        "meta_mean_motion": 15.29243894,
        "meta_eccentricity": 0.00067778,
        "meta_inclination": 97.4328,
        "meta_ra_of_asc_node": 109.7228,
        "meta_arg_of_pericenter": 218.1762,
        "meta_mean_anomaly": 141.8998,
        "meta_ephemeris_type": 0,
        "meta_classification_type": "U",
        "meta_norad_cat_id": 58661,
        "meta_element_set_no": 999,
        "meta_rev_at_epoch": 11065,
        "meta_bstar": 0.00036399809,
        "meta_mean_motion_dot": 0.00010262,
        "meta_mean_motion_ddot": 0,
        "tle_line1": "1 58661U 23208B   25358.24813528  .00010262  00000+0  36400-3 0  9993",
        "tle_line2": "2 58661  97.4328 109.7228 0006777 218.1762 141.8998 15.29243894110654"
      },
      "geometry": {
        "type": "Point",
        "coordinates": [
          -74.26697069752925,
          -30.1838822926701
        ]
      }
    },
    {
      "type": "Feature",
      "properties": {
        "norad_id": 58662,
        "name": "TIANMU-1 21",
        "group": "weather",
        "lat": -36.64614793358839,
        "lon": 117.62680721062759,
        "alt_km": 478.51381658131413,
        "timestamp": "2025-12-24T14:43:28.639088+00:00",
        "meta_object_name": "TIANMU-1 21",
        "meta_object_id": "2023-208C",
        "meta_epoch": "2025-12-24T07:02:49.223328",
        "meta_mean_motion": 15.31792037,
        "meta_eccentricity": 0.00064184,
        "meta_inclination": 97.4378,
        "meta_ra_of_asc_node": 111.7286,
        "meta_arg_of_pericenter": 212.2505,
        "meta_mean_anomaly": 147.8345,
        "meta_ephemeris_type": 0,
        "meta_classification_type": "U",
        "meta_norad_cat_id": 58662,
        "meta_element_set_no": 999,
        "meta_rev_at_epoch": 11076,
        "meta_bstar": 0.0003935232,
        "meta_mean_motion_dot": 0.00012014,
        "meta_mean_motion_ddot": 0,
        "tle_line1": "1 58662U 23208C   25358.29362527  .00012014  00000+0  39352-3 0  9993",
        "tle_line2": "2 58662  97.4378 111.7286 0006418 212.2505 147.8345 15.31792037110764"
      },
      "geometry": {
        "type": "Point",
        "coordinates": [
          117.62680721062759,
          -36.64614793358839
        ]
      }
    },
    {
      "type": "Feature",
      "properties": {
        "norad_id": 58663,
        "name": "TIANMU-1 22",
        "group": "weather",
        "lat": 73.89829885499557,
        "lon": 82.77080729860577,
        "alt_km": 477.0982026536658,
        "timestamp": "2025-12-24T14:43:28.639107+00:00",
        "meta_object_name": "TIANMU-1 22",
        "meta_object_id": "2023-208D",
        "meta_epoch": "2025-12-24T06:32:05.666784",
        "meta_mean_motion": 15.27793381,
        "meta_eccentricity": 0.00029308,
        "meta_inclination": 97.4386,
        "meta_ra_of_asc_node": 109.3417,
        "meta_arg_of_pericenter": 227.6034,
        "meta_mean_anomaly": 132.4957,
        "meta_ephemeris_type": 0,
        "meta_classification_type": "U",
        "meta_norad_cat_id": 58663,
        "meta_element_set_no": 999,
        "meta_rev_at_epoch": 11059,
        "meta_bstar": 0.00035965009,
        "meta_mean_motion_dot": 9.692e-05,
        "meta_mean_motion_ddot": 0,
        "tle_line1": "1 58663U 23208D   25358.27228781  .00009692  00000+0  35965-3 0  9999",
        "tle_line2": "2 58663  97.4386 109.3417 0002930 227.6034 132.4957 15.27793381110593"
      },
      "geometry": {
        "type": "Point",
        "coordinates": [
          82.77080729860577,
          73.89829885499557
        ]
      }
    },
    {
      "type": "Feature",
      "properties": {
        "norad_id": 58700,
        "name": "TIANMU-1 15",
        "group": "weather",
        "lat": 66.84883509384655,
        "lon": 162.1863579326857,
        "alt_km": 489.72560949521994,
        "timestamp": "2025-12-24T14:43:28.639127+00:00",
        "meta_object_name": "TIANMU-1 15",
        "meta_object_id": "2024-004A",
        "meta_epoch": "2025-12-24T06:33:03.015648",
        "meta_mean_motion": 15.24553742,
        "meta_eccentricity": 0.00060332,
        "meta_inclination": 97.4627,
        "meta_ra_of_asc_node": 179.6991,
        "meta_arg_of_pericenter": 241.07,
        "meta_mean_anomaly": 118.9933,
        "meta_ephemeris_type": 0,
        "meta_classification_type": "U",
        "meta_norad_cat_id": 58700,
        "meta_element_set_no": 999,
        "meta_rev_at_epoch": 10910,
        "meta_bstar": 0.00028863064,
        "meta_mean_motion_dot": 7.039e-05,
        "meta_mean_motion_ddot": 0,
        "tle_line1": "1 58700U 24004A   25358.27295157  .00007039  00000+0  28863-3 0  9999",
        "tle_line2": "2 58700  97.4627 179.6991 0006033 241.0700 118.9933 15.24553742109108"
      },
      "geometry": {
        "type": "Point",
        "coordinates": [
          162.1863579326857,
          66.84883509384655
        ]
      }
    }
  ]
}